NORAD_CAT_ID,OBJECT_NAME,OBJECT_TYPE,EPOCH,MEAN_MOTION,ECCENTRICITY,INCLINATION,RA_OF_ASC_NODE,ARG_OF_PERICENTER,MEAN_ANOMALY,BSTAR,MEAN_MOTION_DOT,MEAN_MOTION_DDOT,TLE_LINE0,TLE_LINE1,TLE_LINE2,SEMIMAJOR_AXIS,PERIOD,APOGEE,PERIGEE,DECAYED
53907.0,STARLINK-5063,PAYLOAD,2023-10-08 11:07:29,15.08848061,0.0001501,53.2189,328.6417,83.35,276.7663,0.00018231,2.615e-05,0.0,0 STARLINK-5063,1 53907U 22119X   23281.46353226  .00002615  00000-0  18231-3 0  9998,2 53907  53.2189 328.6417 0001501  83.3500 276.7663 15.08848061 58350,6917.856,95.437,540.759,538.682,0.0
53907.0,STARLINK-5063,PAYLOAD,2023-10-09 03:01:21,15.08841105,0.0001414,53.2204,325.6674,93.6502,266.4652,2.3353e-05,8.4e-07,0.0,0 STARLINK-5063,1 53907U 22119X   23282.12593908  .00000084  00000-0  23353-4 0  9995,2 53907  53.2204 325.6674 0001414  93.6502 266.4652 15.08841105 58030,6917.877,95.437,540.72,538.764,0.0
53907.0,STARLINK-5063,PAYLOAD,2023-10-09 09:22:53,15.08847633,0.0001515,53.2191,324.4763,92.3937,267.7229,-3.29e-05,-8.12e-06,0.0,0 STARLINK-5063,1 53907U 22119X   23282.39089624 -.00000812  00000-0 -32900-4 0  9998,2 53907  53.2191 324.4763 0001515  92.3937 267.7229 15.08847633 58497,6917.857,95.437,540.77,538.674,0.0
53907.0,STARLINK-5063,PAYLOAD,2023-10-09 14:09:02,15.08852771,0.0001491,53.219,323.583,84.4937,275.6225,5.3166e-05,5.59e-06,0.0,0 STARLINK-5063,1 53907U 22119X   23282.58961014  .00000559  00000-0  53166-4 0  9994,2 53907  53.2190 323.5830 0001491  84.4937 275.6225 15.08852771 58107,6917.841,95.437,540.738,538.675,0.0
53907.0,STARLINK-5063,PAYLOAD,2023-10-10 09:13:40,15.08843867,0.0001718,53.2183,320.0169,83.2341,276.8847,4.3146e-05,3.99e-06,0.0,0 STARLINK-5063,1 53907U 22119X   23283.38449638  .00000399  00000-0  43146-4 0  9995,2 53907  53.2183 320.0169 0001718  83.2341 276.8847 15.08843867 58226,6917.869,95.437,540.922,538.545,0.0
53907.0,STARLINK-5063,PAYLOAD,2023-10-10 12:24:26,15.08850948,0.0001595,53.2184,319.4185,92.0077,268.1098,-1.5464e-07,-2.91e-06,0.0,0 STARLINK-5063,1 53907U 22119X   23283.51697098 -.00000291  00000-0 -15464-6 0  9992,2 53907  53.2184 319.4185 0001595  92.0077 268.1098 15.08850948 58662,6917.847,95.437,540.815,538.609,0.0
53907.0,STARLINK-5063,PAYLOAD,2023-10-11 02:42:55,15.08832496,0.0001507,53.2189,316.742,105.9797,254.1361,4.9574e-06,-2.09e-06,0.0,0 STARLINK-5063,1 53907U 22119X   23284.11314507 -.00000209  00000-0  49574-5 0  9996,2 53907  53.2189 316.7420 0001507 105.9797 254.1361 15.08832496 58335,6917.903,95.438,540.811,538.726,0.0
53907.0,STARLINK-5063,PAYLOAD,2023-10-11 09:04:27,15.08837727,0.000163,53.2176,315.5541,92.8167,267.3012,7.3646e-05,8.84e-06,0.0,0 STARLINK-5063,1 53907U 22119X   23284.37810176  .00000884  00000-0  73646-4 0  9991,2 53907  53.2176 315.5541 0001630  92.8167 267.3012 15.08837727 58379,6917.887,95.438,540.88,538.625,0.0
53907.0,STARLINK-5063,PAYLOAD,2023-10-12 02:33:43,15.08832812,0.000164,53.2166,312.2853,91.5455,268.5725,6.7739e-05,7.9e-06,0.0,0 STARLINK-5063,1 53907U 22119X   23285.10674820  .00000790  00000-0  67739-4 0  9999,2 53907  53.2166 312.2853 0001640  91.5455 268.5725 15.08832812 58481,6917.902,95.438,540.902,538.633,0.0
53907.0,STARLINK-5063,PAYLOAD,2023-10-12 08:55:15,15.08841234,0.000159,53.2175,311.0978,88.2467,271.8707,0.00012208,1.655e-05,0.0,0 STARLINK-5063,1 53907U 22119X   23285.37170502  .00001655  00000-0  12208-3 0  9997,2 53907  53.2175 311.0978 0001590  88.2467 271.8707 15.08841234 58942,6917.877,95.437,540.842,538.642,0.0
53907.0,STARLINK-5063,PAYLOAD,2023-10-12 18:27:34,15.08842417,0.0001618,53.2176,309.3138,93.0516,267.0661,6.4621e-05,7.41e-06,0.0,0 STARLINK-5063,1 53907U 22119X   23285.76914464  .00000741  00000-0  64621-4 0  9995,2 53907  53.2176 309.3138 0001618  93.0516 267.0661 15.08842417 58581,6917.873,95.437,540.857,538.619,0.0
53907.0,STARLINK-5063,PAYLOAD,2023-10-13 10:21:25,15.08841862,0.0001703,53.2187,306.339,93.6418,266.4769,0.0001611,2.277e-05,0.0,0 STARLINK-5063,1 53907U 22119X   23286.43154654  .00002277  00000-0  16110-3 0  9992,2 53907  53.2187 306.3390 0001703  93.6418 266.4769 15.08841862 59106,6917.875,95.437,540.918,538.562,0.0
53907.0,STARLINK-5063,PAYLOAD,2023-10-13 18:18:21,15.088389,0.0001591,53.2181,304.851,91.0144,269.1031,0.00013129,1.802e-05,0.0,0 STARLINK-5063,1 53907U 22119X   23286.76274916  .00001802  00000-0  13129-3 0  9992,2 53907  53.2181 304.8510 0001591  91.0144 269.1031 15.08838900 58739,6917.884,95.438,540.849,538.648,0.0
53907.0,STARLINK-5063,PAYLOAD,2023-10-14 10:12:11,15.08857866,0.0001823,53.2174,301.8781,97.7461,262.3738,0.00022108,3.234e-05,0.0,0 STARLINK-5063,1 53907U 22119X   23287.42513689  .00003234  00000-0  22108-3 0  9997,2 53907  53.2174 301.8781 0001823  97.7461 262.3738 15.08857866 58833,6917.826,95.436,540.952,538.43,0.0
53907.0,STARLINK-5063,PAYLOAD,2023-10-15 00:30:41,15.08835858,0.000188,53.2178,299.2022,91.3133,268.8074,2.0514e-05,3.8e-07,0.0,0 STARLINK-5063,1 53907U 22119X   23288.02130951  .00000038  00000-0  20514-4 0  9990,2 53907  53.2178 299.2022 0001880  91.3133 268.8074 15.08835858 58925,6917.893,95.438,541.059,538.457,0.0
53907.0,STARLINK-5063,PAYLOAD,2023-10-15 08:27:37,15.08831894,0.0001422,53.2166,297.7127,86.0471,274.0684,-9.5734e-05,-1.811e-05,0.0,0 STARLINK-5063,1 53907U 22119X   23288.35251279 -.00001811  00000-0 -95734-4 0  9991,2 53907  53.2166 297.7127 0001422  86.0471 274.0684 15.08831894 59393,6917.905,95.438,540.754,538.786,0.0
53907.0,STARLINK-5063,PAYLOAD,2023-10-15 17:59:55,15.0883684,0.0001436,53.2175,295.9281,88.6266,271.489,3.2537e-05,2.3e-06,0.0,0 STARLINK-5063,1 53907U 22119X   23288.74995219  .00000230  00000-0  32537-4 0  9997,2 53907  53.2175 295.9281 0001436  88.6266 271.4890 15.08836840 59452,6917.89,95.438,540.748,538.762,0.0
53907.0,STARLINK-5063,PAYLOAD,2023-10-16 06:43:00,15.08852308,0.0001456,53.2166,293.5496,88.4028,271.7131,0.00040211,6.12e-05,0.0,0 STARLINK-5063,1 53907U 22119X   23289.27986701  .00006120  00000-0  40211-3 0  9993,2 53907  53.2166 293.5496 0001456  88.4028 271.7131 15.08852308 59111,6917.843,95.437,540.715,538.701,0.0
53907.0,STARLINK-5063,PAYLOAD,2023-10-17 09:44:33,15.08848186,0.0001637,53.2168,288.4938,100.2725,259.8451,0.00025978,3.85e-05,0.0,0 STARLINK-5063,1 53907U 22119X   23290.40594743  .00003850  00000-0  25978-3 0  9991,2 53907  53.2168 288.4938 0001637 100.2725 259.8451 15.08848186 59284,6917.855,95.437,540.853,538.588,0.0
53907.0,STARLINK-5063,PAYLOAD,2023-10-18 03:13:48,15.08843592,0.0001811,53.2159,285.2205,110.0379,250.0808,7.2555e-05,8.67e-06,0.0,0 STARLINK-5063,1 53907U 22119X   23291.13459040  .00000867  00000-0  72555-4 0  9991,2 53907  53.2159 285.2205 0001811 110.0379 250.0808 15.08843592 59391,6917.869,95.437,540.987,538.482,0.0
53907.0,STARLINK-5063,PAYLOAD,2023-10-18 06:24:34,15.08842566,0.0001584,53.2172,284.6293,100.6919,259.4252,5.8661e-05,6.46e-06,0.0,0 STARLINK-5063,1 53907U 22119X   23291.26707110  .00000646  00000-0  58661-4 0  9996,2 53907  53.2172 284.6293 0001584 100.6919 259.4252 15.08842566 59833,6917.873,95.437,540.833,538.642,0.0
53907.0,STARLINK-5063,PAYLOAD,2023-10-19 04:39:58,15.0884714,0.0001578,53.2178,280.4666,99.0328,261.0843,0.00025876,3.833e-05,0.0,0 STARLINK-5063,1 53907U 22119X   23292.19443018  .00003833  00000-0  25876-3 0  9995,2 53907  53.2178 280.4666 0001578  99.0328 261.0843 15.08847140 59552,6917.859,95.437,540.815,538.632,0.0
53907.0,STARLINK-5063,PAYLOAD,2023-10-19 06:15:21,15.088512,0.000153,53.2178,280.1699,99.9726,260.1439,0.00034342,5.183e-05,0.0,0 STARLINK-5063,1 53907U 22119X   23292.26066866  .00005183  00000-0  34342-3 0  9993,2 53907  53.2178 280.1699 0001530  99.9726 260.1439 15.08851200 59984,6917.846,95.437,540.77,538.653,0.0
53907.0,STARLINK-5063,PAYLOAD,2023-10-20 04:30:46,15.08840883,0.0001504,53.2177,276.0079,100.5271,259.589,0.00010718,1.418e-05,0.0,0 STARLINK-5063,1 53907U 22119X   23293.18803290  .00001418  00000-0  10718-3 0  9993,2 53907  53.2177 276.0079 0001504 100.5271 259.5890 15.08840883 59702,6917.878,95.437,540.783,538.702,0.0
53907.0,STARLINK-5063,PAYLOAD,2023-10-21 02:46:10,15.08832432,0.0001476,53.2172,271.8442,104.3104,255.8052,-3.2475e-05,-8.05e-06,0.0,0 STARLINK-5063,1 53907U 22119X   23294.11539896 -.00000805  00000-0 -32475-4 0  9991,2 53907  53.2172 271.8442 0001476 104.3104 255.8052 15.08832432 59844,6917.904,95.438,540.79,538.747,0.0
53907.0,STARLINK-5063,PAYLOAD,2023-10-21 07:32:19,15.08839686,0.0001363,53.2171,270.9522,90.2276,269.8872,9.0785e-05,1.157e-05,0.0,0 STARLINK-5063,1 53907U 22119X   23294.31411769  .00001157  00000-0  90785-4 0  9998,2 53907  53.2171 270.9522 0001363  90.2276 269.8872 15.08839686 60294,6917.881,95.438,540.689,538.803,0.0
53907.0,STARLINK-5063,PAYLOAD,2023-10-21 15:29:15,15.08844891,0.0001401,53.2172,269.4652,92.6851,267.4302,0.00011723,1.579e-05,0.0,0 STARLINK-5063,1 53907U 22119X   23294.64531492  .00001579  00000-0  11723-3 0  9992,2 53907  53.2172 269.4652 0001401  92.6851 267.4302 15.08844891 59924,6917.865,95.437,540.7,538.761,0.0
53907.0,STARLINK-5063,PAYLOAD,2023-10-22 04:12:19,15.08859639,0.0001277,53.2162,267.0855,88.5568,271.5571,0.00048753,7.484e-05,0.0,0 STARLINK-5063,1 53907U 22119X   23295.17522823  .00007484  00000-0  48753-3 0  9993,2 53907  53.2162 267.0855 0001277  88.5568 271.5571 15.08859639 60003,6917.82,95.436,540.569,538.802,0.0
53907.0,STARLINK-5063,PAYLOAD,2023-10-22 07:23:05,15.08871531,0.0001364,53.2161,266.4914,91.5068,268.608,0.00080375,0.00012538,0.0,0 STARLINK-5063,1 53907U 22119X   23295.30770544  .00012538  00000-0  80375-3 0  9995,2 53907  53.2161 266.4914 0001364  91.5068 268.6080 15.08871531 60442,6917.784,95.436,540.593,538.705,0.0
53907.0,STARLINK-5063,PAYLOAD,2023-10-22 15:20:01,15.08841099,0.0001827,53.2157,265.0045,77.6083,282.5114,-0.00033111,-5.554e-05,0.0,0 STARLINK-5063,1 53907U 22119X   23295.63891191 -.00005554  00000-0 -33111-3 0  9991,2 53907  53.2157 265.0045 0001827  77.6083 282.5114 15.08841099 60071,6917.877,95.437,541.006,538.478,0.0
